YAHSAT 1A               
1 37393U 11016B   25006.25835900  .00000115  00000+0  00000+0 0  9994
2 37393   0.0208  51.7837 0003235 254.2958 305.5123  1.00269544 37129
SBIRS GEO-1 (USA 230)   
1 37481U 11019A   25006.20813513  .00000008  00000+0  00000+0 0  9997
2 37481   3.4022  51.1304 0002391 234.1590 321.3738  1.00272716 50119
TELSTAR 14R             
1 37602U 11021A   25006.08521612 -.00000266  00000+0  00000+0 0  9994
2 37602   0.0229 288.6129 0002110  38.4807 106.4738  1.00270464 50540
GSAT-8                  
1 37605U 11022A   25006.18737762  .00000098  00000+0  00000+0 0  9996
2 37605   0.7649  88.6880 0008912 185.9438 313.9085  1.00272315 47938
ST-2                    
1 37606U 11022B   25006.33672523 -.00000197  00000+0  00000+0 0  9998
2 37606   0.0232  85.9928 0001974 220.6334   8.7648  1.00269899 49991
ZHONGXING-10            
1 37677U 11026A   25006.64765760 -.00000338  00000+0  00000+0 0  9997
2 37677   0.0372 254.5659 0002768 325.1053 230.4550  1.00268670 49723
SES-3                   
1 37748U 11035A   25006.61530550 -.00000088  00000+0  00000+0 0  9992
2 37748   0.0241  42.7795 0002725 243.7280 298.4347  1.00270795 49319
KAZSAT-2                
1 37749U 11035B   25006.14354983 -.00000183  00000+0  00000+0 0  9991
2 37749   0.0367 157.9040 0001501 183.4094 262.8355  1.00269083 48114
BEIDOU-2 IGSO-4         
1 37763U 11038A   25005.86939700  .00000050  00000+0  00000+0 0  9996
2 37763  54.5709 170.3833 0131796 228.4931 115.5635  1.00264678 49350
ASTRA 1N                
1 37775U 11041A   25005.32278360  .00000133  00000+0  00000+0 0  9994
2 37775   0.0757  44.9623 0002836 291.7457 263.8471  1.00269528 39233
BSAT-3C (JCSAT-110R)    
1 37776U 11041B   25006.61473505 -.00000337  00000+0  00000+0 0  9993
2 37776   0.0145  53.1431 0000373 311.5923  72.9518  1.00272076 45192
PAKSAT-1R               
1 37779U 11042A   25006.58521747  .00000167  00000+0  00000+0 0  9995
2 37779   0.0362 115.3793 0001528 237.7139   1.9695  1.00272827 49195
SES-2                   
1 37809U 11049A   25006.44497837 -.00000181  00000+0  00000+0 0  9990
2 37809   0.0473 286.1916 0002813  13.2165 240.0434  1.00269993 48680
ARABSAT-5C              
1 37810U 11049B   25006.59146650  .00000137  00000+0  00000+0 0  9992
2 37810   0.0477 355.0462 0004347 249.6762  94.6142  1.00271863 48756
EUTELSAT 7 WEST A       
1 37816U 11051A   25006.44771510 -.00000047  00000+0  00000+0 0  9995
2 37816   0.0632  20.2942 0005600 218.3388  21.5001  1.00270559 48618
QUETZSAT 1              
1 37826U 11054A   25006.44697663 -.00000227  00000+0  00000+0 0  9995
2 37826   0.0202  48.2121 0002953 247.2971 254.6720  1.00271326 44591
INTELSAT 18 (IS-18)     
1 37834U 11056A   25005.85495465  .00000067  00000+0  00000+0 0  9997
2 37834   0.0216  36.8333 0001557 241.4610 315.1827  1.00272652 48529
EUTELSAT 16A            
1 37836U 11057A   25006.32256370  .00000118  00000+0  00000+0 0  9990
2 37836   0.0680  18.1927 0005631 270.7861 309.2669  1.00272784  2049
VIASAT-1                
1 37843U 11059A   25006.29649954 -.00000009  00000+0  00000+0 0  9990
2 37843   0.0192  24.6017 0002402 258.5481 174.5962  1.00270726 42049
ASIASAT 7               
1 37933U 11069A   25006.57781076 -.00000320  00000+0  00000+0 0  9990
2 37933   0.0471 209.8624 0001599  45.4834 164.5676  1.00272489 39574
BEIDOU-2 IGSO-5         
1 37948U 11073A   25006.59910140 -.00000164  00000+0  00000+0 0  9995
2 37948  48.6393 278.0337 0101543 220.7823 278.6040  1.00285971 47858
LUCH-5A                 
1 37951U 11074B   25006.29164184 -.00000039  00000+0  00000+0 0  9997
2 37951   7.4063  81.7807 0004257 182.7330 113.4886  1.00273127 47768
NIGCOMSAT 1R            
1 38014U 11077A   25006.51577417  .00000159  00000+0  00000+0 0  9995
2 38014   0.0358 233.0584 0002069  80.8654  20.5750  1.00269356 47672
WGS F4 (USA 233)        
1 38070U 12003A   25006.33689899 -.00000201  00000+0  00000+0 0  9994
2 38070   0.0167  59.0527 0000599 219.5296  37.2349  1.00269697 38862
SES-4                   
1 38087U 12007A   25006.22618873 -.00000155  00000+0  00000+0 0  9996
2 38087   0.0192  58.6420 0002522 243.8915 222.9436  1.00268915 46941
BEIDOU-2 G5             
1 38091U 12008A   25006.18807266  .00000070  00000+0  00000+0 0  9998
2 38091   2.2601  71.1475 0013044 232.2099 289.0554  1.00270620 47088
MUOS-1                  
1 38093U 12009A   25006.57896444 -.00000116  00000+0  00000+0 0  9992
2 38093   4.4236  46.1699 0052072 355.9872 172.7128  1.00271673 47167
INTELSAT 22 (IS-22)     
1 38098U 12011A   25006.20813513 -.00000046  00000+0  00000+0 0  9998
2 38098   0.0264  59.2983 0001778 249.2267 304.5492  1.00274695  1904
APSTAR-7                
1 38107U 12013A   25006.54897438 -.00000088  00000+0  00000+0 0  9992
2 38107   0.0430  95.7931 0002495 203.1921  81.5020  1.00270402 46529
YAHSAT 1B               
1 38245U 12016A   25006.21924435  .00000140  00000+0  00000+0 0  9998
2 38245   0.0878  92.1921 0002839 210.7093 289.6743  1.00268018 40318
AEHF-2 (USA 235)        
1 38254U 12019A   25006.45327226 -.00000124  00000+0  00000+0 0  9995
2 38254   5.4291  60.8249 0002658 223.3047 328.8582  1.00271226  1701
JCSAT-13                
1 38331U 12023A   25006.59389947 -.00000343  00000+0  00000+0 0  9992
2 38331   0.0207  31.5497 0002117 247.4663 165.1996  1.00270307 46255
VINASAT-2               
1 38332U 12023B   25006.57380051 -.00000315  00000+0  00000+0 0  9997
2 38332   0.0118 356.6153 0002540 290.3719 157.8068  1.00270046 41383
NIMIQ 6                 
1 38342U 12026A   25006.01552796 -.00000159  00000+0  00000+0 0  9993
2 38342   0.0153  58.4699 0002762 225.2620  96.6096  1.00271054 45126
ZHONGXING-2A            
1 38352U 12028A   25006.60882502 -.00000279  00000+0  00000+0 0  9995
2 38352   0.0911  99.8218 0001818 202.5993 121.4203  1.00272467 46012
INTELSAT 19 (IS-19)     
1 38356U 12030A   25006.12219591 -.00000043  00000+0  00000+0 0  9990
2 38356   0.0126  43.3175 0003085 244.9328  27.6920  1.00271095 45153
ECHOSTAR 17             
1 38551U 12035A   25006.36956608 -.00000061  00000+0  00000+0 0  9995
2 38551   0.0191  43.2480 0002277 237.2128 211.6721  1.00272571 45788
METEOSAT-10 (MSG-3)     
1 38552U 12035B   25006.31943601  .00000006  00000+0  00000+0 0  9998
2 38552   3.4305  61.9247 0001488 236.7666 282.4895  1.00273125 45576
SES-5                   
1 38652U 12036A   25006.28243778  .00000047  00000+0  00000+0 0  9999
2 38652   0.0575 301.1727 0001843 339.7194 291.8672  1.00271015 39190
INTELSAT 20 (IS-20)     
1 38740U 12043A   25006.20813513 -.00000010  00000+0  00000+0 0  9998
2 38740   0.0168  74.1468 0003103 104.4838  70.8101  1.00270611 45468
HYLAS 2                 
1 38741U 12043B   25006.56299306 -.00000031  00000+0  00000+0 0  9999
2 38741   1.0650  87.7249 0001312 288.1199  93.7404  1.00570896 45494
INTELSAT 21 (IS-21)     
1 38749U 12045A   25006.55674372 -.00000271  00000+0  00000+0 0  9994
2 38749   0.0210  26.9916 0001853 260.3573 321.4635  1.00268867 45249
ASTRA 2F                
1 38778U 12051A   25006.58591191  .00000163  00000+0  00000+0 0  9992
2 38778   0.0594 243.6860 0003931  12.3555  89.4778  1.00270030 35856
GSAT-10                 
1 38779U 12051B   25005.71021642 -.00000151  00000+0  00000+0 0  9994
2 38779   0.0572 256.4178 0002071 209.4149 338.4295  1.00270048 44804
INTELSAT 23 (IS-23)     
1 38867U 12057A   25005.16552983 -.00000270  00000+0  00000+0 0  9996
2 38867   0.0490 215.9952 0000908 190.2599  65.3516  1.00270873 44655
BEIDOU-2 G6             
1 38953U 12059A   25006.33603019 -.00000163  00000+0  00000+0 0  9992
2 38953   3.0787  78.8607 0008473 288.1207 304.1375  1.00272323 44620
LUCH-5B                 
1 38977U 12061A   25006.45896615 -.00000129  00000+0  00000+0 0  9992
2 38977   9.3351  54.8967 0005433 190.3386   9.9314  1.00270991 44329
YAMAL 300K              
1 38978U 12061B   25006.55188256  .00000085  00000+0  00000+0 0  9999
2 38978   0.0133  51.1323 0000484 302.3224 134.5319  1.00272101 44357
STAR ONE C3             
1 38991U 12062A   25006.48104906 -.00000234  00000+0  00000+0 0  9994
2 38991   0.0225  31.9714 0002187 258.9088 273.5847  1.00266492 44479
EUTELSAT 21B            
1 38992U 12062B   25006.59146650  .00000144  00000+0  00000+0 0  9998
2 38992   0.0680  18.3068 0002881 266.8346  55.7791  1.00273094 44544
ECHOSTAR 16             
1 39008U 12065A   25006.45010434 -.00000268  00000+0  00000+0 0  9993
2 39008   0.0174  24.7165 0002122 257.9055 284.1865  1.00271508 44342
ZHONGXING-12            
1 39017U 12067A   25006.55114639 -.00000193  00000+0  00000+0 0  9995
2 39017   0.0438  96.8608 0003305 184.5025 110.9035  1.00269451 44229
EUTELSAT 70B            
1 39020U 12069A   25006.14910413 -.00000030  00000+0  00000+0 0  9990
2 39020   0.0633  18.9406 0004006 245.3410 325.8565  1.00271509 44226
YAMAL 402               
1 39022U 12070A   25006.47321455  .00000100  00000+0  00000+0 0  9999
2 39022   0.0194  79.0429 0004676 211.0282  41.4708  1.00271307 44117
SKYNET 5D               
1 39034U 12075A   25006.47278015  .00000113  00000+0  00000+0 0  9994
2 39034   0.0671  12.9698 0003855 266.8450  49.3750  1.00270787 43874
MEXSAT 3                
1 39035U 12075B   25006.62452205 -.00000012  00000+0  00000+0 0  9996
2 39035   0.0156  65.3904 0002303 206.6771 304.3974  1.00271399  1775
TDRS 11                 
1 39070U 13004A   25006.56671965  .00000090  00000+0  00000+0 0  9992
2 39070   2.8797  18.5797 0002313  12.9324 104.4321  1.00271793 41416
AMAZONAS 3              
1 39078U 13006A   25006.45019120 -.00000268  00000+0  00000+0 0  9997
2 39078   0.0116 149.9312 0004046 106.4983 310.9170  1.00269231 39637
AZERSPACE 1             
1 39079U 13006B   25006.47121630  .00000147  00000+0  00000+0 0  9995
2 39079   0.0180 352.6011 0001768 319.7451   9.5619  1.00271417 43526
